ONEWEB-0118             
1 47264U 20100G   24007.50872463  .00000660  00000+0  17986-2 0  9998
2 47264  87.9010 168.0288 0001474  73.3997 286.7294 13.12442650147768
ONEWEB-0119             
1 47265U 20100H   24007.46106329 -.00000162  00000+0 -48526-3 0  9999
2 47265  87.9011 168.0762 0001623  99.0250 261.1063 13.12442561147739
ONEWEB-0120             
1 47266U 20100J   24007.49046566  .00000246  00000+0  64797-3 0  9998
2 47266  87.9012 168.0608 0001567  90.9475 269.1833 13.12443295147767
ONEWEB-0121             
1 47267U 20100K   24007.47219172 -.00000362  00000+0 -10409-2 0  9993
2 47267  87.9007 168.0605 0001561 102.1363 257.9940 13.12445103147679
ONEWEB-0122             
1 47268U 20100L   24007.46727987 -.00000339  00000+0 -97718-3 0  9994
2 47268  87.9008 168.0661 0001632  95.1820 264.9495 13.12444034147586
ONEWEB-0123             
1 47269U 20100M   24007.46265373  .00000300  00000+0  79987-3 0  9995
2 47269  87.9010 168.0744 0002436 106.5097 253.6300 13.12440586147722
ONEWEB-0124             
1 47270U 20100N   24007.45153539  .00000013  00000+0  72576-6 0  9997
2 47270  87.9013 168.0725 0001678 106.7524 253.3788 13.12445243147609
ONEWEB-0125             
1 47271U 20100P   24007.50236825  .00000508  00000+0  13759-2 0  9997
2 47271  87.9012 168.0196 0001116 101.1901 258.9353 13.12444238147675
